NORAD_CAT_ID,OBJECT_NAME,OBJECT_TYPE,EPOCH,MEAN_MOTION,ECCENTRICITY,INCLINATION,RA_OF_ASC_NODE,ARG_OF_PERICENTER,MEAN_ANOMALY,BSTAR,MEAN_MOTION_DOT,MEAN_MOTION_DDOT,TLE_LINE0,TLE_LINE1,TLE_LINE2,SEMIMAJOR_AXIS,PERIOD,APOGEE,PERIGEE,DECAYED
54772.0,STARLINK-5452,PAYLOAD,2023-11-10 12:56:11,15.0883532,0.0001466,53.2176,245.7326,92.515,267.601,4.3816e-05,4.09e-06,0.0,0 STARLINK-5452,1 54772U 22175Q   23314.53902686  .00000409  00000-0  43816-4 0  9993,2 54772  53.2176 245.7326 0001466  92.5150 267.6010 15.08835320 51787,6917.895,95.438,540.774,538.746,0.0
54772.0,STARLINK-5452,PAYLOAD,2023-11-11 04:50:02,15.08849835,0.0001519,53.2171,242.7599,92.727,267.3896,0.00046575,7.134e-05,0.0,0 STARLINK-5452,1 54772U 22175Q   23315.20142334  .00007134  00000-0  46575-3 0  9990,2 54772  53.2171 242.7599 0001519  92.7270 267.3896 15.08849835 49721,6917.85,95.437,540.766,538.665,0.0
54772.0,STARLINK-5452,PAYLOAD,2023-11-11 12:46:58,15.08842495,0.0001625,53.2187,241.2706,108.8724,251.2444,0.00017534,2.504e-05,0.0,0 STARLINK-5452,1 54772U 22175Q   23315.53262721  .00002504  00000-0  17534-3 0  9998,2 54772  53.2187 241.2706 0001625 108.8724 251.2444 15.08842495 51935,6917.873,95.437,540.862,538.614,0.0
54772.0,STARLINK-5452,PAYLOAD,2023-11-12 04:40:50,15.08843375,0.0001767,53.2177,238.3,100.5272,259.592,0.00016146,2.283e-05,0.0,0 STARLINK-5452,1 54772U 22175Q   23316.19502849  .00002283  00000-0  16146-3 0  9991,2 54772  53.2177 238.3000 0001767 100.5272 259.5920 15.08843375 52032,6917.87,95.437,540.957,538.513,0.0
54772.0,STARLINK-5452,PAYLOAD,2023-11-12 22:10:05,15.08838951,0.0001767,53.2186,235.0286,104.3151,255.8038,6.7143e-05,7.81e-06,0.0,0 STARLINK-5452,1 54772U 22175Q   23316.92367085  .00000781  00000-0  67143-4 0  9998,2 54772  53.2186 235.0286 0001767 104.3151 255.8038 15.08838951 52145,6917.884,95.438,540.971,538.526,0.0
54772.0,STARLINK-5452,PAYLOAD,2023-11-13 01:20:51,15.08844359,0.0001798,53.2175,234.4334,109.2841,250.8346,3.3389e-05,2.43e-06,0.0,0 STARLINK-5452,1 54772U 22175Q   23317.05614845  .00000243  00000-0  33389-4 0  9990,2 54772  53.2175 234.4334 0001798 109.2841 250.8346 15.08844359 50003,6917.867,95.437,540.976,538.488,0.0
54772.0,STARLINK-5452,PAYLOAD,2023-11-13 04:31:37,15.08840968,0.0001789,53.2176,233.8383,117.9995,242.1178,0.00021295,3.103e-05,0.0,0 STARLINK-5452,1 54772U 22175Q   23317.18863004  .00003103  00000-0  21295-3 0  9997,2 54772  53.2176 233.8383 0001789 117.9995 242.1178 15.08840968 52187,6917.877,95.437,540.98,538.505,0.0
54772.0,STARLINK-5452,PAYLOAD,2023-11-14 10:43:57,15.08839091,0.0001518,53.2163,228.1899,95.2787,264.8378,0.00022085,3.229e-05,0.0,0 STARLINK-5452,1 54772U 22175Q   23318.44719102  .00003229  00000-0  22085-3 0  9993,2 54772  53.2163 228.1899 0001518  95.2787 264.8378 15.08839091 50219,6917.883,95.438,540.798,538.698,0.0
54772.0,STARLINK-5452,PAYLOAD,2023-11-14 18:40:53,15.08838607,0.0001824,53.2161,226.7061,83.5058,276.6142,-3.9568e-05,-9.18e-06,0.0,0 STARLINK-5452,1 54772U 22175Q   23318.77839326 -.00000918  00000-0 -39568-4 0  9999,2 54772  53.2161 226.7061 0001824  83.5058 276.6142 15.08838607 52420,6917.885,95.438,541.011,538.488,0.0
54772.0,STARLINK-5452,PAYLOAD,2023-11-15 04:13:12,15.08836384,0.0001792,53.2162,224.9223,83.5963,276.5233,-5.6827e-05,-1.192e-05,0.0,0 STARLINK-5452,1 54772U 22175Q   23319.17583485 -.00001192  00000-0 -56827-4 0  9998,2 54772  53.2162 224.9223 0001792  83.5963 276.5233 15.08836384 50327,6917.891,95.438,540.996,538.517,0.0
54772.0,STARLINK-5452,PAYLOAD,2023-11-15 18:31:40,15.08843283,0.0001852,53.2177,222.2466,101.9305,258.1895,-0.00010515,-1.961e-05,0.0,0 STARLINK-5452,1 54772U 22175Q   23319.77199328 -.00001961  00000-0 -10515-3 0  9990,2 54772  53.2177 222.2466 0001852 101.9305 258.1895 15.08843283 52570,6917.87,95.437,541.017,538.454,0.0
54772.0,STARLINK-5452,PAYLOAD,2023-11-16 04:03:58,15.0884402,0.0001552,53.2152,220.4626,98.5477,261.5691,7.2558e-05,8.67e-06,0.0,0 STARLINK-5452,1 54772U 22175Q   23320.16943153  .00000867  00000-0  72558-4 0  9996,2 54772  53.2152 220.4626 0001552  98.5477 261.5691 15.08844020 50478,6917.868,95.437,540.807,538.659,0.0
54772.0,STARLINK-5452,PAYLOAD,2023-11-16 16:47:04,15.08841815,0.0001976,53.2142,218.0836,89.7956,270.3263,3.3981e-05,2.53e-06,0.0,0 STARLINK-5452,1 54772U 22175Q   23320.69935316  .00000253  00000-0  33981-4 0  9992,2 54772  53.2142 218.0836 0001976  89.7956 270.3263 15.08841815 52718,6917.875,95.437,541.107,538.373,0.0
54772.0,STARLINK-5452,PAYLOAD,2023-11-17 00:44:00,15.08839705,0.0001616,53.2174,216.596,89.3953,270.7224,0.00012869,1.761e-05,0.0,0 STARLINK-5452,1 54772U 22175Q   23321.03055670  .00001761  00000-0  12869-3 0  9993,2 54772  53.2174 216.5960 0001616  89.3953 270.7224 15.08839705 50600,6917.881,95.438,540.864,538.628,0.0
54772.0,STARLINK-5452,PAYLOAD,2023-11-17 10:16:18,15.08837874,0.0001367,53.2172,214.8136,91.7901,268.3248,0.00012202,1.654e-05,0.0,0 STARLINK-5452,1 54772U 22175Q   23321.42799760  .00001654  00000-0  12202-3 0  9993,2 54772  53.2172 214.8136 0001367  91.7901 268.3248 15.08837874 52827,6917.887,95.438,540.698,538.806,0.0
54772.0,STARLINK-5452,PAYLOAD,2023-11-17 22:59:23,15.08843462,0.0001357,53.2171,212.4342,92.1401,267.9746,2.8739e-05,1.7e-06,0.0,0 STARLINK-5452,1 54772U 22175Q   23321.95791647  .00000170  00000-0  28739-4 0  9992,2 54772  53.2171 212.4342 0001357  92.1401 267.9746 15.08843462 52905,6917.87,95.437,540.674,538.796,0.0
54772.0,STARLINK-5452,PAYLOAD,2023-11-18 02:10:10,15.0884606,0.0001395,53.2179,211.8387,91.8181,268.2971,6.4243e-05,7.35e-06,0.0,0 STARLINK-5452,1 54772U 22175Q   23322.09039361  .00000735  00000-0  64243-4 0  9993,2 54772  53.2179 211.8387 0001395  91.8181 268.2971 15.08846060 50761,6917.862,95.437,540.692,538.762,0.0
54772.0,STARLINK-5452,PAYLOAD,2023-11-18 10:07:05,15.08850612,0.0001458,53.219,210.3499,83.2183,276.8975,-8.2284e-05,-1.598e-05,0.0,0 STARLINK-5452,1 54772U 22175Q   23322.42159276 -.00001598  00000-0 -82284-4 0  9993,2 54772  53.2190 210.3499 0001458  83.2183 276.8975 15.08850612 52971,6917.848,95.437,540.722,538.704,0.0
54772.0,STARLINK-5452,PAYLOAD,2023-11-18 22:50:11,15.08841767,0.0001295,53.2193,207.9721,88.3956,271.7184,2.6978e-05,1.42e-06,0.0,0 STARLINK-5452,1 54772U 22175Q   23322.95151633  .00000142  00000-0  26978-4 0  9990,2 54772  53.2193 207.9721 0001295  88.3956 271.7184 15.08841767 53054,6917.875,95.437,540.636,538.844,0.0
54772.0,STARLINK-5452,PAYLOAD,2023-11-19 09:57:52,15.08841373,0.0001608,53.2194,205.8913,86.5135,273.6041,0.00010872,1.443e-05,0.0,0 STARLINK-5452,1 54772U 22175Q   23323.41519594  .00001443  00000-0  10872-3 0  9996,2 54772  53.2194 205.8913 0001608  86.5135 273.6041 15.08841373 53126,6917.876,95.437,540.854,538.629,0.0
54772.0,STARLINK-5452,PAYLOAD,2023-11-19 22:40:57,15.0884495,0.0001463,53.2175,203.5133,91.2656,268.8504,0.00010188,1.334e-05,0.0,0 STARLINK-5452,1 54772U 22175Q   23323.94511124  .00001334  00000-0  10188-3 0  9994,2 54772  53.2175 203.5133 0001463  91.2656 268.8504 15.08844950 53207,6917.865,95.437,540.742,538.718,0.0
54772.0,STARLINK-5452,PAYLOAD,2023-11-20 19:20:58,15.08841124,0.0001563,53.2175,199.6457,102.5227,257.594,5.2149e-05,5.42e-06,0.0,0 STARLINK-5452,1 54772U 22175Q   23324.80623481  .00000542  00000-0  52149-4 0  9994,2 54772  53.2175 199.6457 0001563 102.5227 257.5940 15.08841124 51175,6917.877,95.437,540.823,538.661,0.0
54772.0,STARLINK-5452,PAYLOAD,2023-11-20 22:31:44,15.08841413,0.0001575,53.217,199.0521,94.6345,265.4827,6.2791e-05,7.11e-06,0.0,0 STARLINK-5452,1 54772U 22175Q   23324.93871462  .00000711  00000-0  62791-4 0  9994,2 54772  53.2170 199.0521 0001575  94.6345 265.4827 15.08841413 53356,6917.876,95.437,540.831,538.652,0.0
54772.0,STARLINK-5452,PAYLOAD,2023-11-21 01:42:31,15.08842858,0.0001523,53.217,198.4566,94.595,265.5216,6.1163e-05,6.86e-06,0.0,0 STARLINK-5452,1 54772U 22175Q   23325.07119353  .00000686  00000-0  61163-4 0  9997,2 54772  53.2170 198.4566 0001523  94.5950 265.5216 15.08842858 53371,6917.872,95.437,540.79,538.683,0.0
54772.0,STARLINK-5452,PAYLOAD,2023-11-21 19:11:45,15.0884204,0.0001554,53.2167,195.185,96.2229,263.894,3.5536e-05,2.78e-06,0.0,0 STARLINK-5452,1 54772U 22175Q   23325.79983537  .00000278  00000-0  35536-4 0  9991,2 54772  53.2167 195.1850 0001554  96.2229 263.8940 15.08842040 53489,6917.874,95.437,540.814,538.664,0.0
54772.0,STARLINK-5452,PAYLOAD,2023-11-21 22:22:31,15.08846571,0.0001591,53.2166,194.59,96.5438,263.5735,6.4487e-05,7.39e-06,0.0,0 STARLINK-5452,1 54772U 22175Q   23325.93231211  .00000739  00000-0  64487-4 0  9991,2 54772  53.2166 194.5900 0001591  96.5438 263.5735 15.08846571 51348,6917.86,95.437,540.826,538.625,0.0
54772.0,STARLINK-5452,PAYLOAD,2023-11-22 20:37:55,15.08845981,0.0001636,53.2158,190.4267,98.0479,262.0699,0.00014108,1.958e-05,0.0,0 STARLINK-5452,1 54772U 22175Q   23326.85967102  .00001958  00000-0  14108-3 0  9996,2 54772  53.2158 190.4267 0001636  98.0479 262.0699 15.08845981 53644,6917.862,95.437,540.859,538.595,0.0
54772.0,STARLINK-5452,PAYLOAD,2023-11-23 18:53:20,15.08829435,0.000143,53.2156,186.2674,82.496,277.6194,-0.00010392,-1.941e-05,0.0,0 STARLINK-5452,1 54772U 22175Q   23327.78704259 -.00001941  00000-0 -10392-3 0  9996,2 54772  53.2156 186.2674 0001430  82.4960 277.6194 15.08829435 51625,6917.913,95.438,540.767,538.788,0.0
54772.0,STARLINK-5452,PAYLOAD,2023-11-23 22:04:06,15.08826399,0.0001478,53.2148,185.6688,78.6079,281.5079,-0.00015028,-2.678e-05,0.0,0 STARLINK-5452,1 54772U 22175Q   23327.91952452 -.00002678  00000-0 -15028-3 0  9990,2 54772  53.2148 185.6688 0001478  78.6079 281.5079 15.08826399 53808,6917.922,95.438,540.809,538.764,0.0
54772.0,STARLINK-5452,PAYLOAD,2023-11-23 23:39:30,15.0882705,0.0001481,53.2149,185.3707,79.6165,280.4994,-0.00015103,-2.69e-05,0.0,0 STARLINK-5452,1 54772U 22175Q   23327.98576436 -.00002690  00000-0 -15103-3 0  9999,2 54772  53.2149 185.3707 0001481  79.6165 280.4994 15.08827050 53819,6917.92,95.438,540.81,538.76,0.0
